[{"OBJECT_NAME":"COSMOS 2506","OBJECT_ID":"2015-029A","EPOCH":"2026-03-09T23:04:50.378016","MEAN_MOTION":14.54348608,"ECCENTRICITY":0.00085368,"INCLINATION":98.0605,"RA_OF_ASC_NODE":113.48,"ARG_OF_PERICENTER":100.8275,"MEAN_ANOMALY":259.3883,"EPHEMERIS_TYPE":0,"CLASSIFICATION_TYPE":"U","NORAD_CAT_ID":40699,"ELEMENT_SET_NO":999,"REV_AT_EPOCH":56846,"BSTAR":2.4503149e-5,"MEAN_MOTION_DOT":6.1e-7,"MEAN_MOTION_DDOT":0},{"OBJECT_NAME":"DELTA 1 DEB","OBJECT_ID":"1972-058JM","EPOCH":"2026-03-09T14:55:26.397984","MEAN_MOTION":14.63031551,"ECCENTRICITY":0.0126699,"INCLINATION":98.5883,"RA_OF_ASC_NODE":210.5427,"ARG_OF_PERICENTER":359.4025,"MEAN_ANOMALY":0.7005,"EPHEMERIS_TYPE":0,"CLASSIFICATION_TYPE":"U","NORAD_CAT_ID":19834,"ELEMENT_SET_NO":999,"REV_AT_EPOCH":92547,"BSTAR":0.00018288,"MEAN_MOTION_DOT":9.93e-6,"MEAN_MOTION_DDOT":0}]
